start=new Date('2022-02-28T00:00:00.000Z').valueOf();
sats=[{"EPHEMERIS_TYPE":"0","SITE":"AFETR","OBJECT_NAME":"STARLINK-2642","MEAN_MOTION":"15.06398977","RCS_SIZE":"LARGE","CLASSIFICATION_TYPE":"U","COUNTRY_CODE":"US","TIME_SYSTEM":"UTC","TLE_LINE1":"1 48437U 21040K   22058.96494757  .00001299  00000-0  10607-3 0  9999","ECCENTRICITY":"0.00018950","CENTER_NAME":"EARTH","MEAN_ANOMALY":"300.9181","PERIOD":"95.592","ELEMENT_SET_NO":"999","REV_AT_EPOCH":"4481","GP_ID":"197285063","SEMIMAJOR_AXIS":"6925.352","FILE":"3331200","INCLINATION":"53.0485","DECAY_DATE":null,"MEAN_MOTION_DOT":"0.00001299","LAUNCH_DATE":"2021-05-09","ARG_OF_PERICENTER":"59.1994","MEAN_MOTION_DDOT":"0.0000000000000","APOAPSIS":"548.529","EPOCH":"2022-02-27T23:09:31.470048","OBJECT_ID":"2021-040K","BSTAR":"0.00010607000000","RA_OF_ASC_NODE":"313.9709","REF_FRAME":"TEME","TLE_LINE2":"2 48437  53.0485 313.9709 0001895  59.1994 300.9181 15.06398977 44819","NORAD_CAT_ID":"48437","MEAN_ELEMENT_THEORY":"SGP4","PERIAPSIS":"545.904","OBJECT_TYPE":"PAYLOAD"},{"ARG_OF_PERICENTER":"49.2197","LAUNCH_DATE":"2021-05-09","MEAN_MOTION_DOT":"0.00000975","DECAY_DATE":null,"INCLINATION":"53.0538","FILE":"3331200","BSTAR":"0.00008436500000","EPOCH":"2022-02-27T21:51:14.247648","OBJECT_ID":"2021-040L","APOAPSIS":"548.643","MEAN_MOTION_DDOT":"0.0000000000000","MEAN_ELEMENT_THEORY":"SGP4","NORAD_CAT_ID":"48438","TLE_LINE2":"2 48438  53.0538 304.2122 0002073  49.2197 310.8971 15.06401983 44948","REF_FRAME":"TEME","RA_OF_ASC_NODE":"304.2122","OBJECT_TYPE":"PAYLOAD","PERIAPSIS":"545.772","RCS_SIZE":"LARGE","MEAN_MOTION":"15.06401983","OBJECT_NAME":"STARLINK-2640","SITE":"AFETR","EPHEMERIS_TYPE":"0","TIME_SYSTEM":"UTC","COUNTRY_CODE":"US","CLASSIFICATION_TYPE":"U","PERIOD":"95.592","MEAN_ANOMALY":"310.8971","CENTER_NAME":"EARTH","ECCENTRICITY":"0.00020730","TLE_LINE1":"1 48438U 21040L   22058.91058157  .00000975  00000-0  84365-4 0  9998","SEMIMAJOR_AXIS":"6925.342","GP_ID":"197285313","REV_AT_EPOCH":"4494","ELEMENT_SET_NO":"999"},{"ELEMENT_SET_NO":"999","SEMIMAJOR_AXIS":"6925.338","GP_ID":"197286565","REV_AT_EPOCH":"4494","CENTER_NAME":"EARTH","ECCENTRICITY":"0.00017640","TLE_LINE1":"1 48439U 21040M   22058.90689289  .00001318  00000-0  10734-3 0  9994","MEAN_ANOMALY":"292.2793","PERIOD":"95.592","CLASSIFICATION_TYPE":"U","COUNTRY_CODE":"US","TIME_SYSTEM":"UTC","EPHEMERIS_TYPE":"0","SITE":"AFETR","RCS_SIZE":"LARGE","MEAN_MOTION":"15.06403348","OBJECT_NAME":"STARLINK-2583","PERIAPSIS":"545.982","OBJECT_TYPE":"PAYLOAD","RA_OF_ASC_NODE":"304.2293","REF_FRAME":"TEME","TLE_LINE2":"2 48439  53.0555 304.2293 0001764  67.8383 292.2793 15.06403348 44948","NORAD_CAT_ID":"48439","MEAN_ELEMENT_THEORY":"SGP4","MEAN_MOTION_DDOT":"0.0000000000000","APOAPSIS":"548.425","OBJECT_ID":"2021-040M","EPOCH":"2022-02-27T21:45:55.545696","BSTAR":"0.00010734000000","FILE":"3331200","DECAY_DATE":null,"INCLINATION":"53.0555","LAUNCH_DATE":"2021-05-09","ARG_OF_PERICENTER":"67.8383","MEAN_MOTION_DOT":"0.00001318"},{"RCS_SIZE":"LARGE","OBJECT_NAME":"STARLINK-2682","MEAN_MOTION":"15.06397710","SITE":"AFETR","EPHEMERIS_TYPE":"0","TIME_SYSTEM":"UTC","COUNTRY_CODE":"US","CLASSIFICATION_TYPE":"U","PERIOD":"95.592","MEAN_ANOMALY":"302.4211","ECCENTRICITY":"0.00018500","CENTER_NAME":"EARTH","TLE_LINE1":"1 48440U 21040N   22058.90321214  .00002213  00000-0  16743-3 0  9998","SEMIMAJOR_AXIS":"6925.356","GP_ID":"197286315","REV_AT_EPOCH":"4494","ELEMENT_SET_NO":"999","ARG_OF_PERICENTER":"57.6957","LAUNCH_DATE":"2021-05-09","MEAN_MOTION_DOT":"0.00002213","DECAY_DATE":null,"INCLINATION":"53.0556","FILE":"3331200","BSTAR":"0.00016743000000","EPOCH":"2022-02-27T21:40:37.528896","OBJECT_ID":"2021-040N","APOAPSIS":"548.502","MEAN_MOTION_DDOT":"0.0000000000000","MEAN_ELEMENT_THEORY":"SGP4","NORAD_CAT_ID":"48440","TLE_LINE2":"2 48440  53.0556 304.2460 0001850  57.6957 302.4211 15.06397710 44941","REF_FRAME":"TEME","RA_OF_ASC_NODE":"304.2460","OBJECT_TYPE":"PAYLOAD","PERIAPSIS":"545.939"},{"EPHEMERIS_TYPE":"0","SITE":"AFETR","OBJECT_NAME":"STARLINK-2702","MEAN_MOTION":"15.06401483","RCS_SIZE":"LARGE","CLASSIFICATION_TYPE":"U","COUNTRY_CODE":"US","TIME_SYSTEM":"UTC","TLE_LINE1":"1 48441U 21040P   22058.96586886  .00001459  00000-0  11684-3 0  9993","ECCENTRICITY":"0.00016840","CENTER_NAME":"EARTH","MEAN_ANOMALY":"298.4485","PERIOD":"95.592","ELEMENT_SET_NO":"999","REV_AT_EPOCH":"4495","SEMIMAJOR_AXIS":"6925.344","GP_ID":"197285564","FILE":"3331200","INCLINATION":"53.0571","DECAY_DATE":null,"MEAN_MOTION_DOT":"0.00001459","ARG_OF_PERICENTER":"61.6673","LAUNCH_DATE":"2021-05-09","MEAN_MOTION_DDOT":"0.0000000000000","APOAPSIS":"548.375","OBJECT_ID":"2021-040P","EPOCH":"2022-02-27T23:10:51.069504","BSTAR":"0.00011684000000","RA_OF_ASC_NODE":"303.9601","REF_FRAME":"TEME","TLE_LINE2":"2 48441  53.0571 303.9601 0001684  61.6673 298.4485 15.06401483 44958","NORAD_CAT_ID":"48441","MEAN_ELEMENT_THEORY":"SGP4","PERIAPSIS":"546.043","OBJECT_TYPE":"PAYLOAD"},{"OBJECT_TYPE":"PAYLOAD","PERIAPSIS":"546.073","MEAN_ELEMENT_THEORY":"SGP4","NORAD_CAT_ID":"48442","TLE_LINE2":"2 48442  53.0556 303.9601 0001630  74.8891 285.2278 15.06403808 44958","REF_FRAME":"TEME","RA_OF_ASC_NODE":"303.9601","BSTAR":"0.00012772000000","OBJECT_ID":"2021-040Q","EPOCH":"2022-02-27T23:05:32.620704","APOAPSIS":"548.331","MEAN_MOTION_DDOT":"0.0000000000000","LAUNCH_DATE":"2021-05-09","ARG_OF_PERICENTER":"74.8891","MEAN_MOTION_DOT":"0.00001622","DECAY_DATE":null,"INCLINATION":"53.0556","FILE":"3331200","SEMIMAJOR_AXIS":"6925.337","GP_ID":"197285814","REV_AT_EPOCH":"4495","ELEMENT_SET_NO":"999","PERIOD":"95.592","MEAN_ANOMALY":"285.2278","CENTER_NAME":"EARTH","ECCENTRICITY":"0.00016300","TLE_LINE1":"1 48442U 21040Q   22058.96218311  .00001622  00000-0  12772-3 0  9990","TIME_SYSTEM":"UTC","COUNTRY_CODE":"US","CLASSIFICATION_TYPE":"U","RCS_SIZE":"LARGE","MEAN_MOTION":"15.06403808","OBJECT_NAME":"STARLINK-2644","SITE":"AFETR","EPHEMERIS_TYPE":"0"},{"ELEMENT_SET_NO":"999","REV_AT_EPOCH":"4495","SEMIMAJOR_AXIS":"6925.342","GP_ID":"197286065","MEAN_ANOMALY":"290.2473","TLE_LINE1":"1 48443U 21040R   22058.95849587  .00001534  00000-0  12187-3 0  9997","ECCENTRICITY":"0.00015720","CENTER_NAME":"EARTH","PERIOD":"95.592","COUNTRY_CODE":"US","CLASSIFICATION_TYPE":"U","TIME_SYSTEM":"UTC","EPHEMERIS_TYPE":"0","OBJECT_NAME":"STARLINK-2663","MEAN_MOTION":"15.06402196","RCS_SIZE":"LARGE","SITE":"AFETR","OBJECT_TYPE":"PAYLOAD","PERIAPSIS":"546.118","TLE_LINE2":"2 48443  53.0565 303.9820 0001572  69.8685 290.2473 15.06402196 44954","RA_OF_ASC_NODE":"303.9820","REF_FRAME":"TEME","MEAN_ELEMENT_THEORY":"SGP4","NORAD_CAT_ID":"48443","APOAPSIS":"548.295","MEAN_MOTION_DDOT":"0.0000000000000","BSTAR":"0.00012187000000","EPOCH":"2022-02-27T23:00:14.043168","OBJECT_ID":"2021-040R","INCLINATION":"53.0565","DECAY_DATE":null,"FILE":"3331200","MEAN_MOTION_DOT":"0.00001534","LAUNCH_DATE":"2021-05-09","ARG_OF_PERICENTER":"69.8685"},{"DECAY_DATE":null,"INCLINATION":"53.0562","FILE":"3331200","ARG_OF_PERICENTER":"70.6005","LAUNCH_DATE":"2021-05-09","MEAN_MOTION_DOT":"0.00001579","APOAPSIS":"548.356","MEAN_MOTION_DDOT":"0.0000000000000","BSTAR":"0.00012488000000","OBJECT_ID":"2021-040S","EPOCH":"2022-02-27T22:54:56.101536","TLE_LINE2":"2 48444  53.0562 304.0040 0001635  70.6005 289.5161 15.06396551 44956","RA_OF_ASC_NODE":"304.0040","REF_FRAME":"TEME","MEAN_ELEMENT_THEORY":"SGP4","NORAD_CAT_ID":"48444","OBJECT_TYPE":"PAYLOAD","PERIAPSIS":"546.092","EPHEMERIS_TYPE":"0","RCS_SIZE":"LARGE","OBJECT_NAME":"STARLINK-2645","MEAN_MOTION":"15.06396551","SITE":"AFETR","COUNTRY_CODE":"US","CLASSIFICATION_TYPE":"U","TIME_SYSTEM":"UTC","MEAN_ANOMALY":"289.5161","ECCENTRICITY":"0.00016350","CENTER_NAME":"EARTH","TLE_LINE1":"1 48444U 21040S   22058.95481599  .00001579  00000-0  12488-3 0  9996","PERIOD":"95.592","ELEMENT_SET_NO":"999","SEMIMAJOR_AXIS":"6925.359","GP_ID":"197286816","REV_AT_EPOCH":"4495"},{"MEAN_ANOMALY":"285.3934","ECCENTRICITY":"0.00017200","CENTER_NAME":"EARTH","TLE_LINE1":"1 48445U 21040T   22058.95113039  .00000949  00000-0  82605-4 0  9997","PERIOD":"95.592","ELEMENT_SET_NO":"999","GP_ID":"197285064","SEMIMAJOR_AXIS":"6925.361","REV_AT_EPOCH":"4495","EPHEMERIS_TYPE":"0","RCS_SIZE":"LARGE","OBJECT_NAME":"STARLINK-2634","MEAN_MOTION":"15.06395881","SITE":"AFETR","COUNTRY_CODE":"US","CLASSIFICATION_TYPE":"U","TIME_SYSTEM":"UTC","TLE_LINE2":"2 48445  53.0551 304.0278 0001720  74.7245 285.3934 15.06395881 44951","REF_FRAME":"TEME","RA_OF_ASC_NODE":"304.0278","MEAN_ELEMENT_THEORY":"SGP4","NORAD_CAT_ID":"48445","OBJECT_TYPE":"PAYLOAD","PERIAPSIS":"546.035","DECAY_DATE":null,"INCLINATION":"53.0551","FILE":"3331200","ARG_OF_PERICENTER":"74.7245","LAUNCH_DATE":"2021-05-09","MEAN_MOTION_DOT":"0.00000949","APOAPSIS":"548.417","MEAN_MOTION_DDOT":"0.0000000000000","BSTAR":"0.00008260500000","OBJECT_ID":"2021-040T","EPOCH":"2022-02-27T22:49:37.665696"},{"PERIAPSIS":"546.212","OBJECT_TYPE":"PAYLOAD","RA_OF_ASC_NODE":"304.3327","REF_FRAME":"TEME","TLE_LINE2":"2 48446  53.0553 304.3327 0001445  64.4263 295.6875 15.06400213 44945","NORAD_CAT_ID":"48446","MEAN_ELEMENT_THEORY":"SGP4","MEAN_MOTION_DDOT":"0.0000000000000","APOAPSIS":"548.214","EPOCH":"2022-02-27T21:08:46.542336","OBJECT_ID":"2021-040U","BSTAR":"0.00012549000000","FILE":"3331200","INCLINATION":"53.0553","DECAY_DATE":null,"MEAN_MOTION_DOT":"0.00001588","ARG_OF_PERICENTER":"64.4263","LAUNCH_DATE":"2021-05-09","ELEMENT_SET_NO":"999","REV_AT_EPOCH":"4494","GP_ID":"197285314","SEMIMAJOR_AXIS":"6925.348","TLE_LINE1":"1 48446U 21040U   22058.88109424  .00001588  00000-0  12549-3 0  9992","ECCENTRICITY":"0.00014450","CENTER_NAME":"EARTH","MEAN_ANOMALY":"295.6875","PERIOD":"95.592","CLASSIFICATION_TYPE":"U","COUNTRY_CODE":"US","TIME_SYSTEM":"UTC","EPHEMERIS_TYPE":"0","SITE":"AFETR","OBJECT_NAME":"STARLINK-2247","MEAN_MOTION":"15.06400213","RCS_SIZE":"LARGE"}];
